{"type": "FeatureCollection", "features": [ {"type": "Feature", "properties": {"norad_id": 31225, "name": "FENGYUN 1C DEB", "group": "fengyun-1c-debris", "lat": -2.4799202952652184, "lon": -106.60281371828252, "alt_km": 875.7088054199321, "timestamp": "2025-12-26T09:30:53.919235+00:00", "meta": {"OBJECT_NAME": "FENGYUN 1C DEB", "OBJECT_ID": "1999-025BLF", "EPOCH": "2025-12-25T16:26:18.423744", "MEAN_MOTION": 14.17923532, "ECCENTRICITY": 0.00881902, "INCLINATION": 98.9886, "RA_OF_ASC_NODE": 73.0699, "ARG_OF_PERICENTER": 313.9171, "MEAN_ANOMALY": 199.2987, "EPHEMERIS_TYPE": 0, "CLASSIFICATION_TYPE": "U", "NORAD_CAT_ID": 31225, "ELEMENT_SET_NO": 999, "REV_AT_EPOCH": 96005, "BSTAR": 0.0013171474, "MEAN_MOTION_DOT": 2.753e-05, "MEAN_MOTION_DDOT": 0}, "tle": {"line1": "1 31225U 99025BLF 25359.68493546  .00002753  00000+0  13171-2 0  9998", "line2": "2 31225  98.9886  73.0699 0088190 313.9171 199.2987 14.17923532960050"}}, "geometry": {"type": "Point", "coordinates": [-106.60281371828252, -2.4799202952652184]}}, {"type": "Feature", "properties": {"norad_id": 31226, "name": "FENGYUN 1C DEB", "group": "fengyun-1c-debris", "lat": 55.2899134329939, "lon": -12.650007374006082, "alt_km": 811.413070351111, "timestamp": "2025-12-26T09:30:53.919245+00:00", "meta": {"OBJECT_NAME": "FENGYUN 1C DEB", "OBJECT_ID": "1999-025BLG", "EPOCH": "2025-12-17T06:26:05.828928", "MEAN_MOTION": 14.2670123, "ECCENTRICITY": 0.01270359, "INCLINATION": 98.3503, "RA_OF_ASC_NODE": 350.8791, "ARG_OF_PERICENTER": 182.6246, "MEAN_ANOMALY": 177.4284, "EPHEMERIS_TYPE": 0, "CLASSIFICATION_TYPE": "U", "NORAD_CAT_ID": 31226, "ELEMENT_SET_NO": 999, "REV_AT_EPOCH": 62118, "BSTAR": 0.0003027873, "MEAN_MOTION_DOT": 7.56e-06, "MEAN_MOTION_DDOT": 0}, "tle": {"line1": "1 31226U 99025BLG 25351.26812302  .00000756  00000+0  30279-3 0  9990", "line2": "2 31226  98.3503 350.8791 0127035 182.6246 177.4284 14.26701230621181"}}, "geometry": {"type": "Point", "coordinates": [-12.650007374006082, 55.2899134329939]}}, {"type": "Feature", "properties": {"norad_id": 31228, "name": "FENGYUN 1C DEB", "group": "fengyun-1c-debris", "lat": -13.72692885498969, "lon": 90.4424955341549, "alt_km": 820.801036981713, "timestamp": "2025-12-26T09:30:53.919256+00:00", "meta": {"OBJECT_NAME": "FENGYUN 1C DEB", "OBJECT_ID": "1999-025BLJ", "EPOCH": "2025-12-25T17:42:35.697024", "MEAN_MOTION": 14.36960767, "ECCENTRICITY": 0.00793049, "INCLINATION": 98.8698, "RA_OF_ASC_NODE": 271.9501, "ARG_OF_PERICENTER": 48.1495, "MEAN_ANOMALY": 340.3902, "EPHEMERIS_TYPE": 0, "CLASSIFICATION_TYPE": "U", "NORAD_CAT_ID": 31228, "ELEMENT_SET_NO": 999, "REV_AT_EPOCH": 97756, "BSTAR": 0.00057958489, "MEAN_MOTION_DOT": 1.733e-05, "MEAN_MOTION_DDOT": 0}, "tle": {"line1": "1 31228U 99025BLJ 25359.73791316  .00001733  00000+0  57958-3 0  9992", "line2": "2 31228  98.8698 271.9501 0079304  48.1495 340.3902 14.36960767977569"}}, "geometry": {"type": "Point", "coordinates": [90.4424955341549, -13.72692885498969]}}, {"type": "Feature", "properties": {"norad_id": 31229, "name": "FENGYUN 1C DEB", "group": "fengyun-1c-debris", "lat": -29.64704326589962, "lon": 80.87227438588202, "alt_km": 813.1283648717163, "timestamp": "2025-12-26T09:30:53.919266+00:00", "meta": {"OBJECT_NAME": "FENGYUN 1C DEB", "OBJECT_ID": "1999-025BLK", "EPOCH": "2025-12-25T15:04:43.520736", "MEAN_MOTION": 14.21898855, "ECCENTRICITY": 0.0054293, "INCLINATION": 98.866, "RA_OF_ASC_NODE": 75.0036, "ARG_OF_PERICENTER": 259.3307, "MEAN_ANOMALY": 100.1753, "EPHEMERIS_TYPE": 0, "CLASSIFICATION_TYPE": "U", "NORAD_CAT_ID": 31229, "ELEMENT_SET_NO": 999, "REV_AT_EPOCH": 96267, "BSTAR": 0.0015695, "MEAN_MOTION_DOT": 3.469e-05, "MEAN_MOTION_DDOT": 0}, "tle": {"line1": "1 31229U 99025BLK 25359.62828149  .00003469  00000+0  15695-2 0  9995", "line2": "2 31229  98.8660  75.0036 0054293 259.3307 100.1753 14.21898855962677"}}, "geometry": {"type": "Point", "coordinates": [80.87227438588202, -29.64704326589962]}}, {"type": "Feature", "properties": {"norad_id": 31231, "name": "FENGYUN 1C DEB", "group": "fengyun-1c-debris", "lat": 61.448500818143714, "lon": -2.4927425390147393, "alt_km": 574.8415233173846, "timestamp": "2025-12-26T09:30:53.919276+00:00", "meta": {"OBJECT_NAME": "FENGYUN 1C DEB", "OBJECT_ID": "1999-025BLM", "EPOCH": "2025-12-23T04:31:59.359872", "MEAN_MOTION": 14.7598115, "ECCENTRICITY": 0.01447549, "INCLINATION": 98.861, "RA_OF_ASC_NODE": 157.3309, "ARG_OF_PERICENTER": 73.4101, "MEAN_ANOMALY": 288.2947, "EPHEMERIS_TYPE": 0, "CLASSIFICATION_TYPE": "U", "NORAD_CAT_ID": 31231, "ELEMENT_SET_NO": 999, "REV_AT_EPOCH": 63175, "BSTAR": 0.0022406568, "MEAN_MOTION_DOT": 0.00018286, "MEAN_MOTION_DDOT": 0}, "tle": {"line1": "1 31231U 99025BLM 25357.18888148  .00018286  00000+0  22407-2 0  9994", "line2": "2 31231  98.8610 157.3309 0144754  73.4101 288.2947 14.75981150631756"}}, "geometry": {"type": "Point", "coordinates": [-2.4927425390147393, 61.448500818143714]}}, {"type": "Feature", "properties": {"norad_id": 31234, "name": "FENGYUN 1C DEB", "group": "fengyun-1c-debris", "lat": -24.107457917444545, "lon": -1.9967350905193517, "alt_km": 916.332157375814, "timestamp": "2025-12-26T09:30:53.919286+00:00", "meta": {"OBJECT_NAME": "FENGYUN 1C DEB", "OBJECT_ID": "1999-025BLQ", "EPOCH": "2025-12-21T17:04:15.155328", "MEAN_MOTION": 14.08023964, "ECCENTRICITY": 0.00734361, "INCLINATION": 98.7852, "RA_OF_ASC_NODE": 349.4757, "ARG_OF_PERICENTER": 201.3949, "MEAN_ANOMALY": 158.4147, "EPHEMERIS_TYPE": 0, "CLASSIFICATION_TYPE": "U", "NORAD_CAT_ID": 31234, "ELEMENT_SET_NO": 999, "REV_AT_EPOCH": 72846, "BSTAR": 0.00028337584, "MEAN_MOTION_DOT": 4.51e-06, "MEAN_MOTION_DDOT": 0}, "tle": {"line1": "1 31234U 99025BLQ 25355.71128652  .00000451  00000+0  28338-3 0  9996", "line2": "2 31234  98.7852 349.4757 0073436 201.3949 158.4147 14.08023964728468"}}, "geometry": {"type": "Point", "coordinates": [-1.9967350905193517, -24.107457917444545]}}, {"type": "Feature", "properties": {"norad_id": 31235, "name": "FENGYUN 1C DEB", "group": "fengyun-1c-debris", "lat": 54.49035256828506, "lon": -19.88998628451991, "alt_km": 925.9698650048504, "timestamp": "2025-12-26T09:30:53.919296+00:00", "meta": {"OBJECT_NAME": "FENGYUN 1C DEB", "OBJECT_ID": "1999-025BLR", "EPOCH": "2025-12-24T02:46:21.503424", "MEAN_MOTION": 14.18770202, "ECCENTRICITY": 0.01798593, "INCLINATION": 98.4674, "RA_OF_ASC_NODE": 145.8804, "ARG_OF_PERICENTER": 348.7908, "MEAN_ANOMALY": 10.9286, "EPHEMERIS_TYPE": 0, "CLASSIFICATION_TYPE": "U", "NORAD_CAT_ID": 31235, "ELEMENT_SET_NO": 999, "REV_AT_EPOCH": 63328, "BSTAR": 0.0032766626, "MEAN_MOTION_DOT": 7.96e-05, "MEAN_MOTION_DDOT": 0}, "tle": {"line1": "1 31235U 99025BLR 25358.11552666  .00007960  00000+0  32767-2 0  9992", "line2": "2 31235  98.4674 145.8804 0179859 348.7908  10.9286 14.18770202633282"}}, "geometry": {"type": "Point", "coordinates": [-19.88998628451991, 54.49035256828506]}}, {"type": "Feature", "properties": {"norad_id": 31236, "name": "FENGYUN 1C DEB", "group": "fengyun-1c-debris", "lat": -7.01323796455874, "lon": 133.38962428140567, "alt_km": 1176.4429645115042, "timestamp": "2025-12-26T09:30:53.919306+00:00", "meta": {"OBJECT_NAME": "FENGYUN 1C DEB", "OBJECT_ID": "1999-025BLS", "EPOCH": "2025-12-23T19:59:02.166144", "MEAN_MOTION": 13.86019444, "ECCENTRICITY": 0.03149414, "INCLINATION": 98.5455, "RA_OF_ASC_NODE": 312.105, "ARG_OF_PERICENTER": 16.5726, "MEAN_ANOMALY": 344.545, "EPHEMERIS_TYPE": 0, "CLASSIFICATION_TYPE": "U", "NORAD_CAT_ID": 31236, "ELEMENT_SET_NO": 999, "REV_AT_EPOCH": 61178, "BSTAR": 0.0059238181, "MEAN_MOTION_DOT": 0.00010034, "MEAN_MOTION_DDOT": 0}, "tle": {"line1": "1 31236U 99025BLS 25357.83266396  .00010034  00000+0  59238-2 0  9991", "line2": "2 31236  98.5455 312.1050 0314941  16.5726 344.5450 13.86019444611782"}}, "geometry": {"type": "Point", "coordinates": [133.38962428140567, -7.01323796455874]}}, {"type": "Feature", "properties": {"norad_id": 31237, "name": "FENGYUN 1C DEB", "group": "fengyun-1c-debris", "lat": -6.7154627117545385, "lon": 177.893951113187, "alt_km": 823.6373716963508, "timestamp": "2025-12-26T09:30:53.919316+00:00", "meta": {"OBJECT_NAME": "FENGYUN 1C DEB", "OBJECT_ID": "1999-025BLT", "EPOCH": "2025-12-25T05:47:46.972032", "MEAN_MOTION": 14.31427957, "ECCENTRICITY": 0.0088353, "INCLINATION": 98.454, "RA_OF_ASC_NODE": 357.773, "ARG_OF_PERICENTER": 311.8398, "MEAN_ANOMALY": 47.5266, "EPHEMERIS_TYPE": 0, "CLASSIFICATION_TYPE": "U", "NORAD_CAT_ID": 31237, "ELEMENT_SET_NO": 999, "REV_AT_EPOCH": 97445, "BSTAR": 0.00057423, "MEAN_MOTION_DOT": 1.547e-05, "MEAN_MOTION_DDOT": 0}, "tle": {"line1": "1 31237U 99025BLT 25359.24151588  .00001547  00000+0  57423-3 0  9999", "line2": "2 31237  98.4540 357.7730 0088353 311.8398  47.5266 14.31427957974452"}}, "geometry": {"type": "Point", "coordinates": [177.893951113187, -6.7154627117545385]}}, {"type": "Feature", "properties": {"norad_id": 31239, "name": "FENGYUN 1C DEB", "group": "fengyun-1c-debris", "lat": 42.38618168131818, "lon": -13.116688352228016, "alt_km": 872.1245000838262, "timestamp": "2025-12-26T09:30:53.919326+00:00", "meta": {"OBJECT_NAME": "FENGYUN 1C DEB", "OBJECT_ID": "1999-025BLV", "EPOCH": "2025-12-25T11:53:33.271872", "MEAN_MOTION": 14.09877493, "ECCENTRICITY": 0.004991, "INCLINATION": 98.7588, "RA_OF_ASC_NODE": 354.0953, "ARG_OF_PERICENTER": 161.9295, "MEAN_ANOMALY": 351.477, "EPHEMERIS_TYPE": 0, "CLASSIFICATION_TYPE": "U", "NORAD_CAT_ID": 31239, "ELEMENT_SET_NO": 999, "REV_AT_EPOCH": 96191, "BSTAR": 0.00030306, "MEAN_MOTION_DOT": 4.97e-06, "MEAN_MOTION_DDOT": 0}, "tle": {"line1": "1 31239U 99025BLV 25359.49552398  .00000497  00000+0  30306-3 0  9996", "line2": "2 31239  98.7588 354.0953 0049910 161.9295 351.4770 14.09877493961915"}}, "geometry": {"type": "Point", "coordinates": [-13.116688352228016, 42.38618168131818]}}]}